CCSDS_OMM_VERS = 2.0
CREATION_DATE  = 
ORIGINATOR     = 

OBJECT_NAME    = KUIPER-00251
OBJECT_ID      = 2025-301Z
CENTER_NAME    = EARTH
REF_FRAME      = TEME
TIME_SYSTEM    = UTC
MEAN_ELEMENT_THEORY = SGP/SGP4

EPOCH          = 2026-01-05T12:50:21.566976
MEAN_MOTION    = 15.35056282
ECCENTRICITY   = .00090125
INCLINATION    = 51.8678
RA_OF_ASC_NODE = 10.4738
ARG_OF_PERICENTER = 166.4594
MEAN_ANOMALY   = 193.6635

EPHEMERIS_TYPE = 0
CLASSIFICATION_TYPE = U
NORAD_CAT_ID   = 67156
ELEMENT_SET_NO = 999
REV_AT_EPOCH   = 421
BSTAR          = .86716625E-3
MEAN_MOTION_DOT = .29717E-3
MEAN_MOTION_DDOT = 0

CCSDS_OMM_VERS = 2.0
CREATION_DATE  = 
ORIGINATOR     = 

OBJECT_NAME    = KUIPER-00252
OBJECT_ID      = 2025-301AA
CENTER_NAME    = EARTH
REF_FRAME      = TEME
TIME_SYSTEM    = UTC
MEAN_ELEMENT_THEORY = SGP/SGP4

EPOCH          = 2026-01-05T12:59:38.498784
MEAN_MOTION    = 15.34725255
ECCENTRICITY   = .00098921
INCLINATION    = 51.8669
RA_OF_ASC_NODE = 10.5143
ARG_OF_PERICENTER = 178.8227
MEAN_ANOMALY   = 181.2783

EPHEMERIS_TYPE = 0
CLASSIFICATION_TYPE = U
NORAD_CAT_ID   = 67157
ELEMENT_SET_NO = 999
REV_AT_EPOCH   = 402
BSTAR          = .84937076E-3
MEAN_MOTION_DOT = .28794E-3
MEAN_MOTION_DDOT = 0

CCSDS_OMM_VERS = 2.0
CREATION_DATE  = 
ORIGINATOR     = 

OBJECT_NAME    = KUIPER-00261
OBJECT_ID      = 2025-301AB
CENTER_NAME    = EARTH
REF_FRAME      = TEME
TIME_SYSTEM    = UTC
MEAN_ELEMENT_THEORY = SGP/SGP4

EPOCH          = 2026-01-05T12:37:16.692960
MEAN_MOTION    = 15.35904184
ECCENTRICITY   = .00064925
INCLINATION    = 51.8706
RA_OF_ASC_NODE = 10.4176
ARG_OF_PERICENTER = 151.8938
MEAN_ANOMALY   = 208.2400

EPHEMERIS_TYPE = 0
CLASSIFICATION_TYPE = U
NORAD_CAT_ID   = 67158
ELEMENT_SET_NO = 999
REV_AT_EPOCH   = 402
BSTAR          = .93642673E-3
MEAN_MOTION_DOT = .33007E-3
MEAN_MOTION_DDOT = 0

CCSDS_OMM_VERS = 2.0
CREATION_DATE  = 
ORIGINATOR     = 

OBJECT_NAME    = KUIPER-00265
OBJECT_ID      = 2025-301AC
CENTER_NAME    = EARTH
REF_FRAME      = TEME
TIME_SYSTEM    = UTC
MEAN_ELEMENT_THEORY = SGP/SGP4

EPOCH          = 2026-01-05T14:00:03.000384
MEAN_MOTION    = 15.33030048
ECCENTRICITY   = .00016195
INCLINATION    = 51.8759
RA_OF_ASC_NODE = 10.0388
ARG_OF_PERICENTER = 104.3426
MEAN_ANOMALY   = 269.1201

EPHEMERIS_TYPE = 0
CLASSIFICATION_TYPE = U
NORAD_CAT_ID   = 67159
ELEMENT_SET_NO = 999
REV_AT_EPOCH   = 406
BSTAR          = -.38577439E-1
MEAN_MOTION_DOT = -.1139503E-1
MEAN_MOTION_DDOT = 0

CCSDS_OMM_VERS = 2.0
CREATION_DATE  = 
ORIGINATOR     = 

OBJECT_NAME    = GALILEO 33
OBJECT_ID      = 2025-302A
CENTER_NAME    = EARTH
REF_FRAME      = TEME
TIME_SYSTEM    = UTC
MEAN_ELEMENT_THEORY = SGP/SGP4

EPOCH          = 2025-12-18T03:30:19.486368
MEAN_MOTION    = 1.72906186
ECCENTRICITY   = .00084238
INCLINATION    = 54.2406
RA_OF_ASC_NODE = 107.2544
ARG_OF_PERICENTER = 237.6458
MEAN_ANOMALY   = 122.2317

EPHEMERIS_TYPE = 0
CLASSIFICATION_TYPE = U
NORAD_CAT_ID   = 67160
ELEMENT_SET_NO = 999
REV_AT_EPOCH   = 2
BSTAR          = 0
MEAN_MOTION_DOT = -.7E-7
MEAN_MOTION_DDOT = 0

CCSDS_OMM_VERS = 2.0
CREATION_DATE  = 
ORIGINATOR     = 

OBJECT_NAME    = GALILEO B
OBJECT_ID      = 2025-302B
CENTER_NAME    = EARTH
REF_FRAME      = TEME
TIME_SYSTEM    = UTC
MEAN_ELEMENT_THEORY = SGP/SGP4

EPOCH          = 2026-01-02T18:06:52.099488
MEAN_MOTION    = 1.72971423
ECCENTRICITY   = .00071808
INCLINATION    = 54.2350
RA_OF_ASC_NODE = 106.7647
ARG_OF_PERICENTER = 268.5393
MEAN_ANOMALY   = 91.3592

EPHEMERIS_TYPE = 0
CLASSIFICATION_TYPE = U
NORAD_CAT_ID   = 67161
ELEMENT_SET_NO = 999
REV_AT_EPOCH   = 30
BSTAR          = 0
MEAN_MOTION_DOT = -.25E-6
MEAN_MOTION_DDOT = 0

CCSDS_OMM_VERS = 2.0
CREATION_DATE  = 
ORIGINATOR     = 

OBJECT_NAME    = GALILEO 33 (139)
OBJECT_ID      = 2025-302C
CENTER_NAME    = EARTH
REF_FRAME      = TEME
TIME_SYSTEM    = UTC
MEAN_ELEMENT_THEORY = SGP/SGP4

EPOCH          = 2025-12-22T04:22:43.605696
MEAN_MOTION    = 1.73130437
ECCENTRICITY   = .0000312
INCLINATION    = 54.2447
RA_OF_ASC_NODE = 107.1379
ARG_OF_PERICENTER = 196.8367
MEAN_ANOMALY   = 159.4994

EPHEMERIS_TYPE = 0
CLASSIFICATION_TYPE = U
NORAD_CAT_ID   = 67162
ELEMENT_SET_NO = 999
REV_AT_EPOCH   = 12
BSTAR          = 0
MEAN_MOTION_DOT = .6E-7
MEAN_MOTION_DDOT = 0

CCSDS_OMM_VERS = 2.0
CREATION_DATE  = 
ORIGINATOR     = 

OBJECT_NAME    = STARLINK-35755
OBJECT_ID      = 2025-303A
CENTER_NAME    = EARTH
REF_FRAME      = TEME
TIME_SYSTEM    = UTC
MEAN_ELEMENT_THEORY = SGP/SGP4

EPOCH          = 2025-12-17T14:36:01.999872
MEAN_MOTION    = 16.01284782
ECCENTRICITY   = .00115
INCLINATION    = 43.0100
RA_OF_ASC_NODE = 69.0834
ARG_OF_PERICENTER = 323.6500
MEAN_ANOMALY   = 9.4800

EPHEMERIS_TYPE = 0
CLASSIFICATION_TYPE = U
NORAD_CAT_ID   = 67163
ELEMENT_SET_NO = 999
REV_AT_EPOCH   = 1
BSTAR          = 0
MEAN_MOTION_DOT = -.2699E-4
MEAN_MOTION_DDOT = .8533731E-5

CCSDS_OMM_VERS = 2.0
CREATION_DATE  = 
ORIGINATOR     = 

OBJECT_NAME    = STARLINK-36201
OBJECT_ID      = 2025-303B
CENTER_NAME    = EARTH
REF_FRAME      = TEME
TIME_SYSTEM    = UTC
MEAN_ELEMENT_THEORY = SGP/SGP4

EPOCH          = 2025-12-17T14:36:01.999872
MEAN_MOTION    = 16.01284782
ECCENTRICITY   = .00115
INCLINATION    = 43.0100
RA_OF_ASC_NODE = 69.0834
ARG_OF_PERICENTER = 323.6500
MEAN_ANOMALY   = 9.4800

EPHEMERIS_TYPE = 0
CLASSIFICATION_TYPE = U
NORAD_CAT_ID   = 67164
ELEMENT_SET_NO = 999
REV_AT_EPOCH   = 1
BSTAR          = 0
MEAN_MOTION_DOT = -.2699E-4
MEAN_MOTION_DDOT = .8533731E-5

CCSDS_OMM_VERS = 2.0
CREATION_DATE  = 
ORIGINATOR     = 

OBJECT_NAME    = STARLINK-36186
OBJECT_ID      = 2025-303C
CENTER_NAME    = EARTH
REF_FRAME      = TEME
TIME_SYSTEM    = UTC
MEAN_ELEMENT_THEORY = SGP/SGP4

EPOCH          = 2025-12-17T14:36:01.999872
MEAN_MOTION    = 16.01284782
ECCENTRICITY   = .00115
INCLINATION    = 43.0100
RA_OF_ASC_NODE = 69.0834
ARG_OF_PERICENTER = 323.6500
MEAN_ANOMALY   = 9.4800

EPHEMERIS_TYPE = 0
CLASSIFICATION_TYPE = U
NORAD_CAT_ID   = 67165
ELEMENT_SET_NO = 999
REV_AT_EPOCH   = 1
BSTAR          = 0
MEAN_MOTION_DOT = -.2699E-4
MEAN_MOTION_DDOT = .8533731E-5

CCSDS_OMM_VERS = 2.0
CREATION_DATE  = 
ORIGINATOR     = 

OBJECT_NAME    = STARLINK-36174
OBJECT_ID      = 2025-303D
CENTER_NAME    = EARTH
REF_FRAME      = TEME
TIME_SYSTEM    = UTC
MEAN_ELEMENT_THEORY = SGP/SGP4

EPOCH          = 2025-12-17T14:36:01.999872
MEAN_MOTION    = 16.01284782
ECCENTRICITY   = .00115
INCLINATION    = 43.0100
RA_OF_ASC_NODE = 69.0834
ARG_OF_PERICENTER = 323.6500
MEAN_ANOMALY   = 9.4800

EPHEMERIS_TYPE = 0
CLASSIFICATION_TYPE = U
NORAD_CAT_ID   = 67166
ELEMENT_SET_NO = 999
REV_AT_EPOCH   = 1
BSTAR          = 0
MEAN_MOTION_DOT = -.2699E-4
MEAN_MOTION_DDOT = .8533731E-5

CCSDS_OMM_VERS = 2.0
CREATION_DATE  = 
ORIGINATOR     = 

OBJECT_NAME    = STARLINK-36198
OBJECT_ID      = 2025-303E
CENTER_NAME    = EARTH
REF_FRAME      = TEME
TIME_SYSTEM    = UTC
MEAN_ELEMENT_THEORY = SGP/SGP4

EPOCH          = 2025-12-17T14:36:01.999872
MEAN_MOTION    = 16.01284782
ECCENTRICITY   = .00115
INCLINATION    = 43.0100
RA_OF_ASC_NODE = 69.0834
ARG_OF_PERICENTER = 323.6500
MEAN_ANOMALY   = 9.4800

EPHEMERIS_TYPE = 0
CLASSIFICATION_TYPE = U
NORAD_CAT_ID   = 67167
ELEMENT_SET_NO = 999
REV_AT_EPOCH   = 1
BSTAR          = 0
MEAN_MOTION_DOT = -.2699E-4
MEAN_MOTION_DDOT = .8533731E-5

